NORAD_CAT_ID,OBJECT_NAME,OBJECT_TYPE,EPOCH,MEAN_MOTION,ECCENTRICITY,INCLINATION,RA_OF_ASC_NODE,ARG_OF_PERICENTER,MEAN_ANOMALY,BSTAR,MEAN_MOTION_DOT,MEAN_MOTION_DDOT,TLE_LINE0,TLE_LINE1,TLE_LINE2,SEMIMAJOR_AXIS,PERIOD,APOGEE,PERIGEE,DECAYED
52536.0,STARLINK-3964,PAYLOAD,2024-04-02 07:44:04,15.08823441,0.0001282,53.2161,60.1253,85.6,274.5139,-0.00029899,-5.041e-05,0.0,0 STARLINK-3964,1 52536U 22051D   24093.32227711 -.00005041  00000-0 -29899-3 0  9996,2 52536  53.2161  60.1253 0001282  85.6000 274.5139 15.08823441104800,6917.931,95.439,540.683,538.909,0.0
52536.0,STARLINK-3964,PAYLOAD,2024-04-03 02:48:42,15.08832748,0.0001326,53.2173,56.5568,89.276,270.8384,2.3018e-06,-2.51e-06,0.0,0 STARLINK-3964,1 52536U 22051D   24094.11716363 -.00000251  00000-0  23018-5 0  9996,2 52536  53.2173  56.5568 0001326  89.2760 270.8384 15.08832748104994,6917.903,95.438,540.685,538.85,0.0
52536.0,STARLINK-3964,PAYLOAD,2024-04-03 13:56:25,15.08837633,0.0001234,53.2168,54.4774,90.3171,269.7962,0.0004348,6.638e-05,0.0,0 STARLINK-3964,1 52536U 22051D   24094.58084705  .00006638  00000-0  43480-3 0  9992,2 52536  53.2168  54.4774 0001234  90.3171 269.7962 15.08837633104998,6917.888,95.438,540.606,538.899,0.0
52536.0,STARLINK-3964,PAYLOAD,2024-04-03 21:53:21,15.08836285,0.0001526,53.2189,52.9937,105.0467,255.0694,0.00036036,5.451e-05,0.0,0 STARLINK-3964,1 52536U 22051D   24094.91205003  .00005451  00000-0  36036-3 0  9996,2 52536  53.2189  52.9937 0001526 105.0467 255.0694 15.08836285105040,6917.892,95.438,540.812,538.701,0.0
52536.0,STARLINK-3964,PAYLOAD,2024-04-04 04:14:53,15.08841298,0.0001565,53.219,51.8035,102.6201,257.4966,0.00036336,5.5e-05,0.0,0 STARLINK-3964,1 52536U 22051D   24095.17700960  .00005500  00000-0  36336-3 0  9995,2 52536  53.2190  51.8035 0001565 102.6201 257.4966 15.08841298105151,6917.876,95.437,540.824,538.659,0.0
52536.0,STARLINK-3964,PAYLOAD,2024-04-04 13:47:12,15.08846598,0.0001557,53.219,50.0189,101.2953,258.8215,0.00035488,5.365e-05,0.0,0 STARLINK-3964,1 52536U 22051D   24095.57444781  .00005365  00000-0  35488-3 0  9991,2 52536  53.2190  50.0189 0001557 101.2953 258.8215 15.08846598105141,6917.86,95.437,540.802,538.648,0.0
52536.0,STARLINK-3964,PAYLOAD,2024-04-05 04:05:40,15.08836992,0.0001656,53.2194,47.3435,102.3753,257.7424,0.00043564,6.651e-05,0.0,0 STARLINK-3964,1 52536U 22051D   24096.17061219  .00006651  00000-0  43564-3 0  9992,2 52536  53.2194  47.3435 0001656 102.3753 257.7424 15.08836992105303,6917.89,95.438,540.9,538.609,0.0
52536.0,STARLINK-3964,PAYLOAD,2024-04-05 13:37:58,15.08854254,0.0001501,53.219,45.5584,97.8368,262.2795,0.0003375,5.089e-05,0.0,0 STARLINK-3964,1 52536U 22051D   24096.56804234  .00005089  00000-0  33750-3 0  9997,2 52536  53.2190  45.5584 0001501  97.8368 262.2795 15.08854254105294,6917.837,95.437,540.74,538.663,0.0
52536.0,STARLINK-3964,PAYLOAD,2024-04-06 03:56:27,15.08836936,0.0001544,53.2186,42.882,92.038,268.0789,-2.0545e-05,-6.15e-06,0.0,0 STARLINK-3964,1 52536U 22051D   24097.16420941 -.00000615  00000-0 -20545-4 0  9994,2 52536  53.2186  42.8820 0001544  92.0380 268.0789 15.08836936105452,6917.89,95.438,540.823,538.687,0.0
52536.0,STARLINK-3964,PAYLOAD,2024-04-06 13:28:46,15.08846482,0.000155,53.2185,41.0954,81.6324,278.4844,0.00017449,2.491e-05,0.0,0 STARLINK-3964,1 52536U 22051D   24097.56164592  .00002491  00000-0  17449-3 0  9995,2 52536  53.2185  41.0954 0001550  81.6324 278.4844 15.08846482105442,6917.861,95.437,540.798,538.653,0.0
52536.0,STARLINK-3964,PAYLOAD,2024-04-07 13:19:33,15.08849193,0.0001429,53.2184,36.6361,83.3276,276.7879,0.00013867,1.92e-05,0.0,0 STARLINK-3964,1 52536U 22051D   24098.55524531  .00001920  00000-0  13867-3 0  9994,2 52536  53.2184  36.6361 0001429  83.3276 276.7879 15.08849193105590,6917.852,95.437,540.706,538.729,0.0
52536.0,STARLINK-3964,PAYLOAD,2024-04-07 19:41:06,15.08840794,0.0001588,53.2192,35.447,85.5891,274.5283,0.00022647,3.318e-05,0.0,0 STARLINK-3964,1 52536U 22051D   24098.82021170  .00003318  00000-0  22647-3 0  9994,2 52536  53.2192  35.4470 0001588  85.5891 274.5283 15.08840794105638,6917.878,95.438,540.842,538.644,0.0
52536.0,STARLINK-3964,PAYLOAD,2024-04-08 05:13:25,15.0884258,0.0001573,53.2192,33.6589,101.8409,258.276,0.00016918,2.406e-05,0.0,0 STARLINK-3964,1 52536U 22051D   24099.21765127  .00002406  00000-0  16918-3 0  9996,2 52536  53.2192  33.6589 0001573 101.8409 258.2760 15.08842580105768,6917.873,95.437,540.826,538.649,0.0
52536.0,STARLINK-3964,PAYLOAD,2024-04-09 00:18:02,15.08843551,0.0001486,53.2187,30.0916,99.0391,261.0769,0.00020295,2.944e-05,0.0,0 STARLINK-3964,1 52536U 22051D   24100.01253085  .00002944  00000-0  20295-3 0  9992,2 52536  53.2187  30.0916 0001486  99.0391 261.0769 15.08843551105814,6917.87,95.437,540.763,538.707,0.0
52536.0,STARLINK-3964,PAYLOAD,2024-04-09 05:04:11,15.08846046,0.0001462,53.219,29.199,99.69,260.4258,0.00012352,1.679e-05,0.0,0 STARLINK-3964,1 52536U 22051D   24100.21124895  .00001679  00000-0  12352-3 0  9999,2 52536  53.2190  29.1990 0001462  99.6900 260.4258 15.08846046105846,6917.862,95.437,540.738,538.716,0.0
52536.0,STARLINK-3964,PAYLOAD,2024-04-10 04:54:57,15.08837124,0.0001432,53.219,24.7387,100.8019,259.3135,-0.00028143,-4.764e-05,0.0,0 STARLINK-3964,1 52536U 22051D   24101.20483612 -.00004764  00000-0 -28143-3 0  9999,2 52536  53.2190  24.7387 0001432 100.8019 259.3135 15.08837124106063,6917.889,95.438,540.745,538.764,0.0
52536.0,STARLINK-3964,PAYLOAD,2024-04-10 22:24:13,15.08824348,0.0001409,53.2187,21.4684,100.9995,259.1155,-0.00036524,-6.093e-05,0.0,0 STARLINK-3964,1 52536U 22051D   24101.93348431 -.00006093  00000-0 -36524-3 0  9997,2 52536  53.2187  21.4684 0001409 100.9995 259.1155 15.08824348106100,6917.928,95.439,540.768,538.818,0.0
52536.0,STARLINK-3964,PAYLOAD,2024-04-11 01:34:59,15.0882731,0.0001352,53.2185,20.8751,103.4467,256.6676,-0.00024289,-4.15e-05,0.0,0 STARLINK-3964,1 52536U 22051D   24102.06596753 -.00004150  00000-0 -24289-3 0  9991,2 52536  53.2185  20.8751 0001352 103.4467 256.6676 15.08827310106196,6917.919,95.438,540.719,538.849,0.0
52536.0,STARLINK-3964,PAYLOAD,2024-04-11 11:07:18,15.08832249,0.0001446,53.2193,19.0913,104.773,255.3423,-0.00011788,-2.163e-05,0.0,0 STARLINK-3964,1 52536U 22051D   24102.46340808 -.00002163  00000-0 -11788-3 0  9995,2 52536  53.2193  19.0913 0001446 104.7730 255.3423 15.08832249106188,6917.904,95.438,540.769,538.769,0.0
52536.0,STARLINK-3964,PAYLOAD,2024-04-11 22:15:01,15.08824662,0.0001439,53.2189,17.0096,105.0839,255.0312,0.00030613,4.585e-05,0.0,0 STARLINK-3964,1 52536U 22051D   24102.92709723  .00004585  00000-0  30613-3 0  9997,2 52536  53.2189  17.0096 0001439 105.0839 255.0312 15.08824662106251,6917.927,95.439,540.788,538.797,0.0
52536.0,STARLINK-3964,PAYLOAD,2024-04-12 04:36:33,15.08834787,0.0001468,53.2189,15.8207,105.9721,254.1432,0.0004432,6.772e-05,0.0,0 STARLINK-3964,1 52536U 22051D   24103.19205619  .00006772  00000-0  44320-3 0  9992,2 52536  53.2189  15.8207 0001468 105.9721 254.1432 15.08834787106298,6917.896,95.438,540.777,538.746,0.0
52536.0,STARLINK-3964,PAYLOAD,2024-04-12 22:05:48,15.08843513,0.0001435,53.218,12.5503,108.2987,251.8161,0.00036323,5.498e-05,0.0,0 STARLINK-3964,1 52536U 22051D   24103.92069604  .00005498  00000-0  36323-3 0  9993,2 52536  53.2180  12.5503 0001435 108.2987 251.8161 15.08843513106409,6917.87,95.437,540.727,538.742,0.0
52536.0,STARLINK-3964,PAYLOAD,2024-04-13 02:51:57,15.08847205,0.0001392,53.2178,11.6581,107.6951,252.4193,0.00036321,5.498e-05,0.0,0 STARLINK-3964,1 52536U 22051D   24104.11941482  .00005498  00000-0  36321-3 0  9996,2 52536  53.2178  11.6581 0001392 107.6951 252.4193 15.08847205106503,6917.858,95.437,540.686,538.76,0.0
52536.0,STARLINK-3964,PAYLOAD,2024-04-14 02:42:44,15.08841744,0.0001269,53.218,7.1969,97.8448,262.2689,5.4746e-05,5.84e-06,0.0,0 STARLINK-3964,1 52536U 22051D   24105.11301681  .00000584  00000-0  54746-4 0  9991,2 52536  53.2180   7.1969 0001269  97.8448 262.2689 15.08841744106657,6917.875,95.437,540.618,538.862,0.0
52536.0,STARLINK-3964,PAYLOAD,2024-04-14 21:47:22,15.08843423,0.000143,53.2192,3.6243,79.7175,280.3979,0.00010767,1.426e-05,0.0,0 STARLINK-3964,1 52536U 22051D   24105.90789819  .00001426  00000-0  10767-3 0  9991,2 52536  53.2192   3.6243 0001430  79.7175 280.3979 15.08843423106707,6917.87,95.437,540.724,538.746,0.0
52536.0,STARLINK-3964,PAYLOAD,2024-04-15 02:33:31,15.08847998,0.000162,53.2201,2.7313,79.1991,280.9183,0.00017903,2.563e-05,0.0,0 STARLINK-3964,1 52536U 22051D   24106.10661602  .00002563  00000-0  17903-3 0  9995,2 52536  53.2201   2.7313 0001620  79.1991 280.9183 15.08847998106734,6917.856,95.437,540.842,538.6,0.0
52536.0,STARLINK-3964,PAYLOAD,2024-04-15 21:38:09,15.08848477,0.0001416,53.219,359.1644,97.7327,262.3826,0.00018938,2.728e-05,0.0,0 STARLINK-3964,1 52536U 22051D   24106.90149366  .00002728  00000-0  18938-3 0  9993,2 52536  53.2190 359.1644 0001416  97.7327 262.3826 15.08848477106921,6917.854,95.437,540.699,538.74,0.0
52536.0,STARLINK-3964,PAYLOAD,2024-04-16 10:21:13,15.08859556,0.0001233,53.2189,356.7896,79.2857,280.8274,0.00032981,4.968e-05,0.0,0 STARLINK-3964,1 52536U 22051D   24107.43140541  .00004968  00000-0  32981-3 0  9990,2 52536  53.2189 356.7896 0001233  79.2857 280.8274 15.08859556106934,6917.821,95.436,540.539,538.833,0.0
52536.0,STARLINK-3964,PAYLOAD,2024-04-16 19:53:32,15.08845113,0.0001353,53.2187,355.0052,88.5631,271.5516,-3.6776e-06,-3.46e-06,0.0,0 STARLINK-3964,1 52536U 22051D   24107.82885230 -.00000346  00000-0 -36776-5 0  9990,2 52536  53.2187 355.0052 0001353  88.5631 271.5516 15.08845113107069,6917.865,95.437,540.666,538.794,0.0
52536.0,STARLINK-3964,PAYLOAD,2024-04-16 21:28:55,15.08850706,0.0001654,53.2191,354.7069,100.7897,259.3282,9.643e-05,1.247e-05,0.0,0 STARLINK-3964,1 52536U 22051D   24107.89508863  .00001247  00000-0  96430-4 0  9992,2 52536  53.2191 354.7069 0001654 100.7897 259.3282 15.08850706107005,6917.848,95.437,540.857,538.568,0.0
